{
  "type": "FeatureCollection",
  "generator": "overpass-turbo",
  "copyright": "The data included in this document is from www.openstreetmap.org. The data is made available under ODbL.",
  "timestamp": "2025-12-18T05:26:42Z",
  "features": [
    {
      "type": "Feature",
      "properties": {
        "@id": "node/57919090",
        "amenity": "library",
        "created_by": "Potlatch alpha",
        "name": "Burnside Library",
        "wikidata": "Q5000155",
        "@timestamp": "2021-05-17T03:07:26Z",
        "@version": 3,
        "@changeset": 104791495,
        "@user": "CloCkWeRX",
        "@uid": 172061
      },
      "geometry": {
        "type": "Point",
        "coordinates": [
          138.643638,
          -34.93866
        ]
      },
      "id": "node/57919090"
    },
    {
      "type": "Feature",
      "properties": {
        "@id": "way/60341614",
        "amenity": "library",
        "building": "public",
        "building:levels": "1",
        "name": "Mitcham Memorial Library",
        "toilets:wheelchair": "yes",
        "wheelchair": "yes",
        "@timestamp": "2023-10-30T22:22:52Z",
        "@version": 7,
        "@changeset": 143389964,
        "@user": "arctic-rocinante",
        "@uid": 13594566,
        "@geometry": "center"
      },
      "geometry": {
        "type": "Point",
        "coordinates": [
          138.6085885,
          -34.9729828
        ]
      },
      "id": "way/60341614"
    },
    {
      "type": "Feature",
      "properties": {
        "@id": "way/108179135",
        "amenity": "library",
        "building": "yes",
        "building:levels": "4",
        "layer": "2",
        "name": "Flinders University Central Library",
        "@timestamp": "2023-08-28T10:22:28Z",
        "@version": 9,
        "@changeset": 140487388,
        "@user": "jamang1999",
        "@uid": 7749060,
        "@geometry": "center"
      },
      "geometry": {
        "type": "Point",
        "coordinates": [
          138.5723296,
          -35.0253171
        ]
      },
      "id": "way/108179135"
    },
    {
      "type": "Feature",
      "properties": {
        "@id": "way/132180997",
        "addr:country": "AU",
        "addr:housenumber": "63",
        "addr:postcode": "5152",
        "addr:street": "Mount Barker Road",
        "addr:suburb": "Stirling",
        "amenity": "library",
        "building": "yes",
        "internet_access": "yes",
        "name": "Coventry Memorial Library",
        "opening_hours": "Mo-We,Fr 10:00-18:00; Th 10:00-19:00; Sa 10:00-16:00; Su 13:00-16:00; PH off; 00:00-24:00 off \"Catastrophic fire danger\"",
        "operator": "Adelaide Hills Council",
        "operator:type": "public",
        "ref:isil": "OCLC:AUACL",
        "toilets:wheelchair": "yes",
        "website": "https://www.ahc.sa.gov.au/services/libraries/library-locations-and-hours/coventry-library",
        "wheelchair": "yes",
        "@timestamp": "2025-12-13T03:31:34Z",
        "@version": 13,
        "@changeset": 175869857,
        "@user": "CloCkWeRX",
        "@uid": 172061,
        "@geometry": "center"
      },
      "geometry": {
        "type": "Point",
        "coordinates": [
          138.7175661,
          -35.0053994
        ]
      },
      "id": "way/132180997"
    },
    {
      "type": "Feature",
      "properties": {
        "@id": "way/182633531",
        "addr:housenumber": "1",
        "addr:street": "Brooker Terrace",
        "amenity": "library",
        "building": "yes",
        "check_date": "2025-10-30",
        "name": "West Torrens Library",
        "phone": "+61 8 8416 6228",
        "website": "https://www.westtorrens.sa.gov.au/Library",
        "@timestamp": "2025-10-30T01:25:20Z",
        "@version": 13,
        "@changeset": 173953864,
        "@user": "mothbelly",
        "@uid": 22956258,
        "@geometry": "center"
      },
      "geometry": {
        "type": "Point",
        "coordinates": [
          138.5618824,
          -34.9338192
        ]
      },
      "id": "way/182633531"
    },
    {
      "type": "Feature",
      "properties": {
        "@id": "way/192384142",
        "addr:housenumber": "571",
        "addr:postcode": "5092",
        "addr:state": "SA",
        "addr:street": "Montague Road",
        "addr:suburb": "Modbury",
        "air_conditioning": "yes",
        "amenity": "library",
        "building": "yes",
        "name": "City of Tea Tree Gully Library",
        "opening_hours": "Mo,We 09:00-20:00; Tu,Th-Fr 09:00-17:00; Sa 10:00-17:00; Su 11:00-15:00; PH off",
        "source": "bing",
        "website": "https://www.teatreegully.sa.gov.au/Places-Council-parks-facilities-and-venues/Library",
        "wheelchair": "yes",
        "@timestamp": "2023-12-29T04:05:07Z",
        "@version": 2,
        "@changeset": 145644887,
        "@user": "r461195",
        "@uid": 20269716,
        "@geometry": "center"
      },
      "geometry": {
        "type": "Point",
        "coordinates": [
          138.6901145,
          -34.828469
        ]
      },
      "id": "way/192384142"
    },
    {
      "type": "Feature",
      "properties": {
        "@id": "node/200113113",
        "amenity": "library",
        "name": "Mount Barker Community Library",
        "@timestamp": "2025-07-03T03:02:01Z",
        "@version": 4,
        "@changeset": 168423032,
        "@user": "bm8900",
        "@uid": 23061442
      },
      "geometry": {
        "type": "Point",
        "coordinates": [
          138.8549994,
          -35.0691308
        ]
      },
      "id": "node/200113113"
    },
    {
      "type": "Feature",
      "properties": {
        "@id": "way/210312269",
        "addr:housenumber": "72",
        "addr:street": "Woodville Road",
        "addr:suburb": "Woodville",
        "amenity": "library",
        "building": "yes",
        "name": "Civic Library",
        "opening_hours": "Mo-Th 10:00-17:30; Fr 10:00-20:00; Sa 09:15-12:00; Su 13:30-16:30",
        "operator": "City of Charles Sturt",
        "@timestamp": "2025-03-05T08:30:31Z",
        "@version": 6,
        "@changeset": 163233955,
        "@user": "TheSwavu",
        "@uid": 2622285,
        "@geometry": "center"
      },
      "geometry": {
        "type": "Point",
        "coordinates": [
          138.538279,
          -34.8788117
        ]
      },
      "id": "way/210312269"
    },
    {
      "type": "Feature",
      "properties": {
        "@id": "way/215364809",
        "addr:street": "Institute Lane",
        "addr:suburb": "Semaphore",
        "amenity": "library",
        "building": "yes",
        "name": "Port Adelaide-Enfield Council Library, Semaphore Branch",
        "old_name": "Ozone Theatre",
        "opening_hours": "Mo-We 9:30-17:30; Th 09:30-20:00; Fr 10:00-17:30; Sa 09:30-13:00; Su 13:30-17:00",
        "toilets": "yes",
        "toilets:access": "public",
        "website": "https://www.cityofpae.sa.gov.au/explore/libraries",
        "@timestamp": "2025-03-05T08:20:44Z",
        "@version": 7,
        "@changeset": 163233481,
        "@user": "TheSwavu",
        "@uid": 2622285,
        "@geometry": "center"
      },
      "geometry": {
        "type": "Point",
        "coordinates": [
          138.4812309,
          -34.8388164
        ]
      },
      "id": "way/215364809"
    },
    {
      "type": "Feature",
      "properties": {
        "@id": "way/215405039",
        "addr:housenumber": "139",
        "addr:street": "Port Road",
        "addr:suburb": "Hindmarsh",
        "amenity": "library",
        "building": "commercial",
        "name": "Hindmarsh Library",
        "opening_hours": "Mo-Fr 10:00-19:00; Sa 12:30-16:30",
        "operator": "City of Charles Sturt",
        "@timestamp": "2025-03-05T08:29:07Z",
        "@version": 3,
        "@changeset": 163233891,
        "@user": "TheSwavu",
        "@uid": 2622285,
        "@geometry": "center"
      },
      "geometry": {
        "type": "Point",
        "coordinates": [
          138.5735694,
          -34.9057407
        ]
      },
      "id": "way/215405039"
    },
    {
      "type": "Feature",
      "properties": {
        "@id": "way/218842486",
        "amenity": "library",
        "building": "commercial",
        "building:levels": "2",
        "name": "North Adelaide Library",
        "operator": "Adelaide City Council",
        "@timestamp": "2025-07-05T07:23:34Z",
        "@version": 5,
        "@changeset": 168511453,
        "@user": "jamang1999",
        "@uid": 7749060,
        "@geometry": "center"
      },
      "geometry": {
        "type": "Point",
        "coordinates": [
          138.593835,
          -34.9062141
        ]
      },
      "id": "way/218842486"
    },
    {
      "type": "Feature",
      "properties": {
        "@id": "way/227745472",
        "amenity": "library",
        "building": "public",
        "name": "Woodcroft Library",
        "@timestamp": "2018-01-03T05:22:05Z",
        "@version": 3,
        "@changeset": 55118969,
        "@user": "Johnanime",
        "@uid": 5009429,
        "@geometry": "center"
      },
      "geometry": {
        "type": "Point",
        "coordinates": [
          138.5460761,
          -35.1136282
        ]
      },
      "id": "way/227745472"
    },
    {
      "type": "Feature",
      "properties": {
        "@id": "way/240642809",
        "addr:housenumber": "25",
        "addr:street": "Pirie Street",
        "amenity": "library",
        "building": "office",
        "building:levels": "11",
        "layer": "1",
        "name": "Colonel Light Centre",
        "source:amenity": "survey",
        "@timestamp": "2024-10-27T11:01:04Z",
        "@version": 7,
        "@changeset": 158407594,
        "@user": "jamang1999",
        "@uid": 7749060,
        "@geometry": "center"
      },
      "geometry": {
        "type": "Point",
        "coordinates": [
          138.6007702,
          -34.9260333
        ]
      },
      "id": "way/240642809"
    },
    {
      "type": "Feature",
      "properties": {
        "@id": "way/259725059",
        "amenity": "library",
        "building": "yes",
        "name": "Noarlunga Library",
        "wheelchair": "limited",
        "@timestamp": "2015-06-15T11:37:01Z",
        "@version": 2,
        "@changeset": 31977957,
        "@user": "wheelmap_visitor",
        "@uid": 290680,
        "@geometry": "center"
      },
      "geometry": {
        "type": "Point",
        "coordinates": [
          138.4967251,
          -35.1400676
        ]
      },
      "id": "way/259725059"
    },
    {
      "type": "Feature",
      "properties": {
        "@id": "way/260373162",
        "amenity": "library",
        "building": "yes",
        "building:levels": "2",
        "name": "Sturt Library",
        "@timestamp": "2023-08-28T10:22:28Z",
        "@version": 4,
        "@changeset": 140487388,
        "@user": "jamang1999",
        "@uid": 7749060,
        "@geometry": "center"
      },
      "geometry": {
        "type": "Point",
        "coordinates": [
          138.5751312,
          -35.0183565
        ]
      },
      "id": "way/260373162"
    },
    {
      "type": "Feature",
      "properties": {
        "@id": "node/282459978",
        "amenity": "library",
        "check_date": "2025-10-15",
        "name": "Unley Library",
        "@timestamp": "2025-10-14T22:23:19Z",
        "@version": 5,
        "@changeset": 173295757,
        "@user": "arctic-rocinante",
        "@uid": 13594566
      },
      "geometry": {
        "type": "Point",
        "coordinates": [
          138.6078907,
          -34.9506833
        ]
      },
      "id": "node/282459978"
    },
    {
      "type": "Feature",
      "properties": {
        "@id": "node/286681484",
        "amenity": "library",
        "name": "Mawson Lakes Library",
        "@timestamp": "2025-09-18T04:44:21Z",
        "@version": 3,
        "@changeset": 172093067,
        "@user": "Mawsons Lake",
        "@uid": 23268786
      },
      "geometry": {
        "type": "Point",
        "coordinates": [
          138.6170947,
          -34.8109606
        ]
      },
      "id": "node/286681484"
    },
    {
      "type": "Feature",
      "properties": {
        "@id": "node/322709645",
        "amenity": "library",
        "name": "Walkerville Library",
        "@timestamp": "2025-01-26T07:42:12Z",
        "@version": 3,
        "@changeset": 161770700,
        "@user": "TheSwavu",
        "@uid": 2622285
      },
      "geometry": {
        "type": "Point",
        "coordinates": [
          138.614537,
          -34.8976454
        ]
      },
      "id": "node/322709645"
    },
    {
      "type": "Feature",
      "properties": {
        "@id": "way/341969614",
        "amenity": "library",
        "building": "yes",
        "building:levels": "1",
        "name": "Woodside Library",
        "@timestamp": "2022-04-17T06:18:05Z",
        "@version": 4,
        "@changeset": 119804881,
        "@user": "CloCkWeRX",
        "@uid": 172061,
        "@geometry": "center"
      },
      "geometry": {
        "type": "Point",
        "coordinates": [
          138.8750404,
          -34.9539764
        ]
      },
      "id": "way/341969614"
    },
    {
      "type": "Feature",
      "properties": {
        "@id": "way/362188005",
        "addr:housenumber": "243",
        "addr:street": "Hindley Street",
        "air_conditioning": "yes",
        "amenity": "library",
        "building": "university",
        "building:levels": "8",
        "name": "Jeffrey Smart Building",
        "opening_hours": "24/7",
        "operator": "University of South Australia",
        "@timestamp": "2025-09-24T01:50:42Z",
        "@version": 6,
        "@changeset": 172370341,
        "@user": "Jrunty",
        "@uid": 12007865,
        "@geometry": "center"
      },
      "geometry": {
        "type": "Point",
        "coordinates": [
          138.5906566,
          -34.9238061
        ]
      },
      "id": "way/362188005"
    },
    {
      "type": "Feature",
      "properties": {
        "@id": "node/367866730",
        "addr:housenumber": "235",
        "addr:postcode": "5000",
        "addr:state": "SA",
        "addr:street": "Hutt Street",
        "addr:suburb": "Adelaide",
        "amenity": "library",
        "name": "Hutt Street Libraru",
        "opening_hours": "Mo-Fr 10:00-17:00, Sa 10:00-14:00",
        "operator": "City of Adelaide",
        "operator:type": "public",
        "website": "https://www.cityofadelaide.com.au/community/library-services/library-locations/hutt-street-library/",
        "wheelchair": "yes",
        "@timestamp": "2025-09-21T07:37:00Z",
        "@version": 5,
        "@changeset": 172232733,
        "@user": "Carpool1017",
        "@uid": 22094363
      },
      "geometry": {
        "type": "Point",
        "coordinates": [
          138.612166,
          -34.9334316
        ]
      },
      "id": "node/367866730"
    },
    {
      "type": "Feature",
      "properties": {
        "@id": "way/423630380",
        "amenity": "library",
        "building": "yes",
        "name": "Goodwood Library",
        "opening_hours": "Mo 10:30-17:00; Tu 10:00-18:00; We 13:00-17:00; Th 10:00-18:00; Fr 10:00-17:00; Sa 10:00-13:00",
        "operator": "City of Unley",
        "wheelchair": "yes",
        "@timestamp": "2023-08-13T22:28:59Z",
        "@version": 4,
        "@changeset": 139846865,
        "@user": "arctic-rocinante",
        "@uid": 13594566,
        "@geometry": "center"
      },
      "geometry": {
        "type": "Point",
        "coordinates": [
          138.5899313,
          -34.9508054
        ]
      },
      "id": "way/423630380"
    },
    {
      "type": "Feature",
      "properties": {
        "@id": "way/487593505",
        "amenity": "library",
        "building": "house",
        "building:levels": "1",
        "@timestamp": "2025-11-24T10:30:57Z",
        "@version": 4,
        "@changeset": 175060067,
        "@user": "Carpool1017",
        "@uid": 22094363,
        "@geometry": "center"
      },
      "geometry": {
        "type": "Point",
        "coordinates": [
          138.4911752,
          -34.9048761
        ]
      },
      "id": "way/487593505"
    },
    {
      "type": "Feature",
      "properties": {
        "@id": "way/502828536",
        "amenity": "library",
        "building": "yes",
        "name": "Park Holme Library",
        "@timestamp": "2017-06-23T07:57:10Z",
        "@version": 1,
        "@changeset": 49763953,
        "@user": "CloCkWeRX",
        "@uid": 172061,
        "@geometry": "center"
      },
      "geometry": {
        "type": "Point",
        "coordinates": [
          138.555503,
          -34.9917514
        ]
      },
      "id": "way/502828536"
    },
    {
      "type": "Feature",
      "properties": {
        "@id": "way/543080890",
        "addr:postcode": "5086",
        "amenity": "library",
        "building": "yes",
        "internet_access": "wlan",
        "name": "Greenacres Library",
        "opening_hours": "Sa 10:00-14:00; Mo-We, Fr 09:00-18:00; Su 13:00-16:00; Th 09:00-19:00",
        "website": "https://www.paelibraries.com.au/locations",
        "@timestamp": "2024-12-22T02:20:01Z",
        "@version": 4,
        "@changeset": 160488848,
        "@user": "A Australian",
        "@uid": 22311036,
        "@geometry": "center"
      },
      "geometry": {
        "type": "Point",
        "coordinates": [
          138.6374333,
          -34.8701618
        ]
      },
      "id": "way/543080890"
    },
    {
      "type": "Feature",
      "properties": {
        "@id": "way/581499139",
        "amenity": "library",
        "building": "yes",
        "name": "Brighton Library - City of Holdfast Bay",
        "@timestamp": "2023-08-20T10:03:36Z",
        "@version": 3,
        "@changeset": 140125388,
        "@user": "jamang1999",
        "@uid": 7749060,
        "@geometry": "center"
      },
      "geometry": {
        "type": "Point",
        "coordinates": [
          138.5201239,
          -35.0166714
        ]
      },
      "id": "way/581499139"
    },
    {
      "type": "Feature",
      "properties": {
        "@id": "way/586021448",
        "amenity": "library",
        "building": "yes",
        "levels": "1",
        "name": "Public Library",
        "@timestamp": "2025-07-03T12:57:54Z",
        "@version": 2,
        "@changeset": 168443426,
        "@user": "jamang1999",
        "@uid": 7749060,
        "@geometry": "center"
      },
      "geometry": {
        "type": "Point",
        "coordinates": [
          138.6080283,
          -34.9529967
        ]
      },
      "id": "way/586021448"
    },
    {
      "type": "Feature",
      "properties": {
        "@id": "way/588082537",
        "amenity": "library",
        "building": "yes",
        "building:levels": "1",
        "name": "Public Library",
        "@timestamp": "2025-11-24T10:30:57Z",
        "@version": 2,
        "@changeset": 175060067,
        "@user": "Carpool1017",
        "@uid": 22094363,
        "@geometry": "center"
      },
      "geometry": {
        "type": "Point",
        "coordinates": [
          138.4938722,
          -34.9170365
        ]
      },
      "id": "way/588082537"
    },
    {
      "type": "Feature",
      "properties": {
        "@id": "way/663054311",
        "addr:housenumber": "171",
        "addr:postcode": "5074",
        "addr:state": "SA",
        "addr:street": "Montacute Road",
        "addr:suburb": "Newton",
        "amenity": "library",
        "building": "yes",
        "internet_access": "yes",
        "internet_access:fee": "no",
        "name": "Campbelltown Library",
        "phone": "+61 8 8366 9299",
        "website": "https://www.campbelltown.sa.gov.au/library",
        "@timestamp": "2023-10-16T00:37:07Z",
        "@version": 4,
        "@changeset": 142639409,
        "@user": "b-jazz-bot",
        "@uid": 9451067,
        "@geometry": "center"
      },
      "geometry": {
        "type": "Point",
        "coordinates": [
          138.6784462,
          -34.8879543
        ]
      },
      "id": "way/663054311"
    },
    {
      "type": "Feature",
      "properties": {
        "@id": "way/677417155",
        "amenity": "library",
        "building": "yes",
        "name": "State Library of South Australia",
        "toilets": "yes",
        "toilets:wheelchair": "yes",
        "website": "https://www.slsa.sa.gov.au/",
        "wikidata": "Q7603406",
        "@timestamp": "2024-12-31T01:35:15Z",
        "@version": 3,
        "@changeset": 160816235,
        "@user": "arctic-rocinante",
        "@uid": 13594566,
        "@geometry": "center"
      },
      "geometry": {
        "type": "Point",
        "coordinates": [
          138.6023669,
          -34.9205015
        ]
      },
      "id": "way/677417155"
    },
    {
      "type": "Feature",
      "properties": {
        "@id": "way/831017647",
        "amenity": "library",
        "building": "yes",
        "name": "Prospect Library",
        "@timestamp": "2025-12-07T02:49:02Z",
        "@version": 3,
        "@changeset": 175607835,
        "@user": "Carpool1017",
        "@uid": 22094363,
        "@geometry": "center"
      },
      "geometry": {
        "type": "Point",
        "coordinates": [
          138.5935751,
          -34.8860586
        ]
      },
      "id": "way/831017647"
    },
    {
      "type": "Feature",
      "properties": {
        "@id": "node/903719806",
        "addr:housenumber": "9",
        "addr:street": "Charles Street",
        "air_conditioning": "yes",
        "amenity": "library",
        "email": "ngutungkawl@charlessturt.sa.gov.au",
        "internet_access": "yes",
        "name": "Ngutungka West Lakes (Community Hub and Library)",
        "opening_hours": "Mo-Fr 09:00-17:00; Sa 10:00-16:00; Su 12:00-16:00",
        "operator": "City of Charles Sturt",
        "operator:type": "government",
        "phone": "+61 8 8408 1333",
        "website": "https://www.charlessturt.sa.gov.au/community/library/our-libraries/ngutungka-west-lakes",
        "wheelchair": "yes",
        "@timestamp": "2024-03-08T06:08:17Z",
        "@version": 6,
        "@changeset": 148368988,
        "@user": "fortera_au",
        "@uid": 20354703
      },
      "geometry": {
        "type": "Point",
        "coordinates": [
          138.4944856,
          -34.8790342
        ]
      },
      "id": "node/903719806"
    },
    {
      "type": "Feature",
      "properties": {
        "@id": "way/951591512",
        "amenity": "library",
        "building": "yes",
        "@timestamp": "2021-06-06T02:37:58Z",
        "@version": 1,
        "@changeset": 105901973,
        "@user": "AussieJD",
        "@uid": 109714,
        "@geometry": "center"
      },
      "geometry": {
        "type": "Point",
        "coordinates": [
          138.5578343,
          -34.8587874
        ]
      },
      "id": "way/951591512"
    },
    {
      "type": "Feature",
      "properties": {
        "@id": "way/1038983217",
        "amenity": "library",
        "name": "Adelaide Plains Library - Two Wells",
        "operator": "Adelaide Plains Council",
        "website": "https://onecard.network/client/en_AU/mallala/",
        "@timestamp": "2022-03-10T07:31:50Z",
        "@version": 1,
        "@changeset": 118307197,
        "@user": "TheSwavu",
        "@uid": 2622285,
        "@geometry": "center"
      },
      "geometry": {
        "type": "Point",
        "coordinates": [
          138.5143111,
          -34.594077
        ]
      },
      "id": "way/1038983217"
    },
    {
      "type": "Feature",
      "properties": {
        "@id": "way/1193064010",
        "amenity": "library",
        "building": "yes",
        "layer": "2",
        "name": "Paradise Primary School Library",
        "operator": "Paradise Primary School",
        "@timestamp": "2023-08-23T00:18:57Z",
        "@version": 3,
        "@changeset": 140251090,
        "@user": "D_Coombe",
        "@uid": 11435740,
        "@geometry": "center"
      },
      "geometry": {
        "type": "Point",
        "coordinates": [
          138.6852687,
          -34.8704366
        ]
      },
      "id": "way/1193064010"
    },
    {
      "type": "Feature",
      "properties": {
        "@id": "node/1285911391",
        "amenity": "library",
        "name": "Library",
        "@timestamp": "2011-05-15T08:43:54Z",
        "@version": 1,
        "@changeset": 8149004,
        "@user": "RobertM",
        "@uid": 454660
      },
      "geometry": {
        "type": "Point",
        "coordinates": [
          138.5929557,
          -35.0742477
        ]
      },
      "id": "node/1285911391"
    },
    {
      "type": "Feature",
      "properties": {
        "@id": "way/1292752686",
        "amenity": "library",
        "building": "yes",
        "building:levels": "4",
        "name": "Barr Smith Library",
        "wikidata": "Q4863112",
        "wikipedia": "en:Barr Smith Library",
        "@timestamp": "2025-10-31T02:20:56Z",
        "@version": 5,
        "@changeset": 174001213,
        "@user": "fortera_au",
        "@uid": 20354703,
        "@geometry": "center"
      },
      "geometry": {
        "type": "Point",
        "coordinates": [
          138.604483,
          -34.9188814
        ]
      },
      "id": "way/1292752686"
    },
    {
      "type": "Feature",
      "properties": {
        "@id": "node/1871406497",
        "amenity": "library",
        "check_date": "2025-11-22",
        "email": "library@salisbury.sa.gov.au",
        "name": "Ingle Farm Library",
        "opening_hours": "Mo-We,Fr 09:30-17:00; Th 09:30-19:00; Sa 10:00-14:00; Su,PH off",
        "phone": "+61 8 8406 8595",
        "website": "https://www.salisbury.sa.gov.au/community/libraries/branches-hours-locations/ingle-farm-library-2",
        "@timestamp": "2025-11-22T02:43:35Z",
        "@version": 4,
        "@changeset": 174972649,
        "@user": "mothbelly",
        "@uid": 22956258
      },
      "geometry": {
        "type": "Point",
        "coordinates": [
          138.6489251,
          -34.8324041
        ]
      },
      "id": "node/1871406497"
    },
    {
      "type": "Feature",
      "properties": {
        "@id": "node/2424959446",
        "addr:housenumber": "34",
        "addr:postcode": "5108",
        "addr:state": "SA",
        "addr:street": "Church Street",
        "addr:suburb": "Salisbury",
        "air_conditioning": "yes",
        "amenity": "library",
        "internet_access": "wlan",
        "internet_access:fee": "no",
        "name": "Len Beadell (Salisbury) Library",
        "opening_hours": "Mo-We,Fr 08:30-17:30; Th 08:30-19:00; Sa 09:30-15:30; Su 11:00-14:00",
        "operator": "City of Salisbury",
        "operator:type": "government",
        "wheelchair": "yes",
        "@timestamp": "2024-11-28T02:50:00Z",
        "@version": 8,
        "@changeset": 159683719,
        "@user": "Blackrox1411",
        "@uid": 22187094
      },
      "geometry": {
        "type": "Point",
        "coordinates": [
          138.6458413,
          -34.7618816
        ]
      },
      "id": "node/2424959446"
    },
    {
      "type": "Feature",
      "properties": {
        "@id": "node/2428447199",
        "amenity": "library",
        "name": "Schrader Libraray",
        "@timestamp": "2017-04-20T12:45:30Z",
        "@version": 3,
        "@changeset": 47970697,
        "@user": "Qwertii",
        "@uid": 4779804
      },
      "geometry": {
        "type": "Point",
        "coordinates": [
          138.6036214,
          -34.9352994
        ]
      },
      "id": "node/2428447199"
    },
    {
      "type": "Feature",
      "properties": {
        "@id": "node/2483267814",
        "amenity": "library",
        "check_date": "2025-08-09",
        "name": "Port Adelaide Library",
        "@timestamp": "2025-08-09T06:22:15Z",
        "@version": 2,
        "@changeset": 170184745,
        "@user": "CloCkWeRX",
        "@uid": 172061
      },
      "geometry": {
        "type": "Point",
        "coordinates": [
          138.5033672,
          -34.8473277
        ]
      },
      "id": "node/2483267814"
    },
    {
      "type": "Feature",
      "properties": {
        "@id": "node/2570988381",
        "amenity": "library",
        "name": "Glenelg Community Library",
        "source:name": "survey",
        "@timestamp": "2013-12-08T05:16:49Z",
        "@version": 1,
        "@changeset": 19335200,
        "@user": "CloCkWeRX",
        "@uid": 172061
      },
      "geometry": {
        "type": "Point",
        "coordinates": [
          138.512212,
          -34.9797128
        ]
      },
      "id": "node/2570988381"
    },
    {
      "type": "Feature",
      "properties": {
        "@id": "node/3760233641",
        "amenity": "library",
        "name": "Enfield Library",
        "@timestamp": "2015-09-26T13:41:05Z",
        "@version": 1,
        "@changeset": 34263651,
        "@user": "CloCkWeRX",
        "@uid": 172061
      },
      "geometry": {
        "type": "Point",
        "coordinates": [
          138.6016223,
          -34.8528803
        ]
      },
      "id": "node/3760233641"
    },
    {
      "type": "Feature",
      "properties": {
        "@id": "node/3803457282",
        "addr:housenumber": "370",
        "addr:postcode": "5115",
        "addr:street": "Peachey Road",
        "addr:suburb": "Munno Para",
        "amenity": "library",
        "name": "Playford Library",
        "opening_hours": "Mo-We 09:00-17:00; Th 10:00-19:00; Fr 09:00-17:00; Sa 10:00-14:00; Su 13:00-16:00",
        "operator": "Playford City Council",
        "@timestamp": "2025-03-05T08:28:16Z",
        "@version": 6,
        "@changeset": 163233840,
        "@user": "TheSwavu",
        "@uid": 2622285
      },
      "geometry": {
        "type": "Point",
        "coordinates": [
          138.6804135,
          -34.6695397
        ]
      },
      "id": "node/3803457282"
    },
    {
      "type": "Feature",
      "properties": {
        "@id": "node/4950739608",
        "addr:housenumber": "10",
        "addr:street": "Playford Boulevard",
        "amenity": "library",
        "name": "Playford Library",
        "phone": "+61 8 8256 0334",
        "website": "https://playford.sa.gov.au/aboutthelibrary",
        "wheelchair": "yes",
        "@timestamp": "2019-03-23T06:01:02Z",
        "@version": 4,
        "@changeset": 68435395,
        "@user": "b-jazz-bot",
        "@uid": 9451067
      },
      "geometry": {
        "type": "Point",
        "coordinates": [
          138.6714942,
          -34.7176812
        ]
      },
      "id": "node/4950739608"
    },
    {
      "type": "Feature",
      "properties": {
        "@id": "node/4998809936",
        "amenity": "library",
        "name": "Woodville Library and Civic Centre",
        "@timestamp": "2017-07-28T01:00:37Z",
        "@version": 1,
        "@changeset": 50634957,
        "@user": "CloCkWeRX",
        "@uid": 172061
      },
      "geometry": {
        "type": "Point",
        "coordinates": [
          138.5377752,
          -34.8787628
        ]
      },
      "id": "node/4998809936"
    },
    {
      "type": "Feature",
      "properties": {
        "@id": "node/5602269421",
        "addr:postcode": "5000",
        "addr:street": "Francis Street",
        "amenity": "library",
        "name": "City Library",
        "opening_hours": "Mo-Tu, Th 10:00-18:00; Fr 10:00-20:00; Su 12:00-17:00; We 10:00-19:00; Sa 10:00-17:00",
        "phone": "+61 8 8203 7990",
        "@timestamp": "2021-07-29T14:12:40Z",
        "@version": 3,
        "@changeset": 108830834,
        "@user": "TuanIfan",
        "@uid": 625303
      },
      "geometry": {
        "type": "Point",
        "coordinates": [
          138.6023806,
          -34.9232211
        ]
      },
      "id": "node/5602269421"
    },
    {
      "type": "Feature",
      "properties": {
        "@id": "node/6884056285",
        "amenity": "library",
        "internet_access": "wlan",
        "name": "Parks Library",
        "@timestamp": "2019-10-16T03:08:37Z",
        "@version": 1,
        "@changeset": 75750555,
        "@user": "Becca Louise",
        "@uid": 10384051
      },
      "geometry": {
        "type": "Point",
        "coordinates": [
          138.557573,
          -34.8586136
        ]
      },
      "id": "node/6884056285"
    },
    {
      "type": "Feature",
      "properties": {
        "@id": "node/6953440885",
        "amenity": "library",
        "internet_access": "wlan",
        "name": "Kensignton and Norwood Public Library",
        "opening_hours": "Tu-We 13:00-17:00; Su 13:00-20:00; Th 00:00-24:00; Fr 09:30-17:00; Sa 10:00-13:00",
        "wheelchair": "yes",
        "@timestamp": "2019-12-29T05:06:57Z",
        "@version": 3,
        "@changeset": 78970948,
        "@user": "Scott97",
        "@uid": 6468823
      },
      "geometry": {
        "type": "Point",
        "coordinates": [
          138.6316423,
          -34.9215529
        ]
      },
      "id": "node/6953440885"
    },
    {
      "type": "Feature",
      "properties": {
        "@id": "node/7085872951",
        "amenity": "library",
        "name": "Gumeracha Library",
        "@timestamp": "2019-12-27T02:04:59Z",
        "@version": 2,
        "@changeset": 78903555,
        "@user": "Softgrow",
        "@uid": 7898
      },
      "geometry": {
        "type": "Point",
        "coordinates": [
          138.8863948,
          -34.8219684
        ]
      },
      "id": "node/7085872951"
    },
    {
      "type": "Feature",
      "properties": {
        "@id": "node/9518134387",
        "amenity": "library",
        "name": "Lyndoch Library",
        "opening_hours": "Mo-Fr 09:00-12:30, 13:30-17:00; Sa 09:30-12:30",
        "phone": "+61 8 8563 8305",
        "website": "https://www.barossa.sa.gov.au/recreation-and-venues/venues-and-facilities/lyndoch-library-and-council-office",
        "@timestamp": "2022-02-18T23:30:48Z",
        "@version": 1,
        "@changeset": 117586330,
        "@user": "Fizzie-DWG",
        "@uid": 461130
      },
      "geometry": {
        "type": "Point",
        "coordinates": [
          138.891016,
          -34.6011644
        ]
      },
      "id": "node/9518134387"
    },
    {
      "type": "Feature",
      "properties": {
        "@id": "node/11341136920",
        "amenity": "library",
        "name": "Gawler Public Library",
        "opening_hours": "Mo-We,Fr 09:00-17:00; Th 10:00-18:00; Sa 09:00-13:00",
        "operator": "Town of Gawler",
        "@timestamp": "2023-11-14T07:39:10Z",
        "@version": 2,
        "@changeset": 143998246,
        "@user": "fortera_au",
        "@uid": 20354703
      },
      "geometry": {
        "type": "Point",
        "coordinates": [
          138.7494095,
          -34.5993033
        ]
      },
      "id": "node/11341136920"
    },
    {
      "type": "Feature",
      "properties": {
        "@id": "node/11533716830",
        "addr:housenumber": "2",
        "addr:postcode": "5051",
        "addr:state": "SA",
        "addr:street": "Young Street",
        "addr:suburb": "Blackwood",
        "amenity": "library",
        "name": "Blackwood Library",
        "phone": "+61 8 8372 8255",
        "website": "https://onecard.network/client/en_AU/mitcham",
        "@timestamp": "2024-01-20T12:22:36Z",
        "@version": 2,
        "@changeset": 146476814,
        "@user": "fortera_au",
        "@uid": 20354703
      },
      "geometry": {
        "type": "Point",
        "coordinates": [
          138.6150736,
          -35.0196181
        ]
      },
      "id": "node/11533716830"
    },
    {
      "type": "Feature",
      "properties": {
        "@id": "node/11772674360",
        "access": "private",
        "amenity": "library",
        "name": "BFPS Library",
        "operator": "Black Forest Primary School",
        "website": "https://blackforestps.sa.edu.au/library/",
        "@timestamp": "2024-03-30T00:22:53Z",
        "@version": 1,
        "@changeset": 149334638,
        "@user": "arctic-rocinante",
        "@uid": 13594566
      },
      "geometry": {
        "type": "Point",
        "coordinates": [
          138.5735866,
          -34.9605949
        ]
      },
      "id": "node/11772674360"
    },
    {
      "type": "Feature",
      "properties": {
        "@id": "node/12150899998",
        "air_conditioning": "yes",
        "amenity": "library",
        "internet_access": "wlan",
        "internet_access:fee": "no",
        "name": "Marion Cultural Centre Library",
        "wheelchair": "yes",
        "@timestamp": "2024-09-02T05:29:10Z",
        "@version": 3,
        "@changeset": 156080344,
        "@user": "arctic-rocinante",
        "@uid": 13594566
      },
      "geometry": {
        "type": "Point",
        "coordinates": [
          138.5434011,
          -35.0135615
        ]
      },
      "id": "node/12150899998"
    }
  ]
}